[
    {
        "Altitude(m)": 562976.3125004716,
        "Argument of Periapsis(deg)": 0.013245982221427002,
        "Eccentricity": 0.0,
        "Inclination(deg)": 53.0,
        "Latitude(deg)": -31.231725481485004,
        "Longitude(deg)": 70.45240588038942,
        "Mean Anomaly(deg)": -139.81681426484482,
        "RAAN(deg)": 324.9802867370561,
        "Satellite Name": "Starlink Shell 1 1442",
        "Satellite Number": 1442,
        "Semi-Major Axis(m)": 6931778.249405717,
        "Time(s)": 380
    },
    {
        "Altitude(m)": 563151.6202045318,
        "Argument of Periapsis(deg)": 0.013594560700938237,
        "Eccentricity": 0.0,
        "Inclination(deg)": 53.0,
        "Latitude(deg)": -31.677527938113602,
        "Longitude(deg)": 70.9267243306616,
        "Mean Anomaly(deg)": -139.18998306128813,
        "RAAN(deg)": 324.97976796697856,
        "Satellite Name": "Starlink Shell 1 1442",
        "Satellite Number": 1442,
        "Semi-Major Axis(m)": 6931778.249405717,
        "Time(s)": 390
    },
    {
        "Altitude(m)": 563326.8443141142,
        "Argument of Periapsis(deg)": 0.013943139180449475,
        "Eccentricity": 0.0,
        "Inclination(deg)": 53.0,
        "Latitude(deg)": -32.12118305090519,
        "Longitude(deg)": 71.40596177660994,
        "Mean Anomaly(deg)": -138.56315185773138,
        "RAAN(deg)": 324.97924919690104,
        "Satellite Name": "Starlink Shell 1 1442",
        "Satellite Number": 1442,
        "Semi-Major Axis(m)": 6931778.249405717,
        "Time(s)": 400
    },
    {
        "Altitude(m)": 563501.9185817826,
        "Argument of Periapsis(deg)": 0.014291717659960712,
        "Eccentricity": 0.0,
        "Inclination(deg)": 53.0,
        "Latitude(deg)": -32.5626341430168,
        "Longitude(deg)": 71.89022804525358,
        "Mean Anomaly(deg)": -137.93632065417466,
        "RAAN(deg)": 324.97873042682363,
        "Satellite Name": "Starlink Shell 1 1442",
        "Satellite Number": 1442,
        "Semi-Major Axis(m)": 6931778.249405717,
        "Time(s)": 410
    },
    {
        "Altitude(m)": 563676.7766808382,
        "Argument of Periapsis(deg)": 0.014640296139471948,
        "Eccentricity": 0.0,
        "Inclination(deg)": 53.0,
        "Latitude(deg)": -33.00182323695556,
        "Longitude(deg)": 72.37963360909826,
        "Mean Anomaly(deg)": -137.30948945061795,
        "RAAN(deg)": 324.97821165674617,
        "Satellite Name": "Starlink Shell 1 1442",
        "Satellite Number": 1442,
        "Semi-Major Axis(m)": 6931778.249405717,
        "Time(s)": 420
    },
    {
        "Altitude(m)": 563851.352235003,
        "Argument of Periapsis(deg)": 0.014988874618983185,
        "Eccentricity": 0.0,
        "Inclination(deg)": 53.0,
        "Latitude(deg)": -33.438691022183804,
        "Longitude(deg)": 72.87429004985859,
        "Mean Anomaly(deg)": -136.68265824706128,
        "RAAN(deg)": 324.97769288666865,
        "Satellite Name": "Starlink Shell 1 1442",
        "Satellite Number": 1442,
        "Semi-Major Axis(m)": 6931778.249405717,
        "Time(s)": 430
    },
    {
        "Altitude(m)": 564025.5788481433,
        "Argument of Periapsis(deg)": 0.015337453098494424,
        "Eccentricity": 0.0,
        "Inclination(deg)": 53.0,
        "Latitude(deg)": -33.87317682268922,
        "Longitude(deg)": 73.3743105160452,
        "Mean Anomaly(deg)": -136.05582704350456,
        "RAAN(deg)": 324.9771741165912,
        "Satellite Name": "Starlink Shell 1 1442",
        "Satellite Number": 1442,
        "Semi-Major Axis(m)": 6931778.249405717,
        "Time(s)": 440
    },
    {
        "Altitude(m)": 564199.3901339676,
        "Argument of Periapsis(deg)": 0.01568603157800566,
        "Eccentricity": 0.0,
        "Inclination(deg)": 53.0,
        "Latitude(deg)": -34.30521856459552,
        "Longitude(deg)": 73.87980866111648,
        "Mean Anomaly(deg)": -135.4289958399478,
        "RAAN(deg)": 324.9766553465137,
        "Satellite Name": "Starlink Shell 1 1442",
        "Satellite Number": 1442,
        "Semi-Major Axis(m)": 6931778.249405717,
        "Time(s)": 450
    },
    {
        "Altitude(m)": 564372.7197456879,
        "Argument of Periapsis(deg)": 0.0160346100575169,
        "Eccentricity": 0.0,
        "Inclination(deg)": 53.0,
        "Latitude(deg)": -34.734752743895804,
        "Longitude(deg)": 74.39089908748807,
        "Mean Anomaly(deg)": -134.80216463639113,
        "RAAN(deg)": 324.97613657643626,
        "Satellite Name": "Starlink Shell 1 1442",
        "Satellite Number": 1442,
        "Semi-Major Axis(m)": 6931778.249405717,
        "Time(s)": 460
    },
    {
        "Altitude(m)": 564545.501405718,
        "Argument of Periapsis(deg)": 0.016383188537028134,
        "Eccentricity": 0.0,
        "Inclination(deg)": 53.0,
        "Latitude(deg)": -35.16171439440131,
        "Longitude(deg)": 74.90769778305838,
        "Mean Anomaly(deg)": -134.17533343283438,
        "RAAN(deg)": 324.9756178063588,
        "Satellite Name": "Starlink Shell 1 1442",
        "Satellite Number": 1442,
        "Semi-Major Axis(m)": 6931778.249405717,
        "Time(s)": 470
    },
    {
        "Altitude(m)": 564717.6689352504,
        "Argument of Periapsis(deg)": 0.01673176701653937,
        "Eccentricity": 0.0,
        "Inclination(deg)": 53.0,
        "Latitude(deg)": -35.586037056005914,
        "Longitude(deg)": 75.43032103688886,
        "Mean Anomaly(deg)": -133.54850222927772,
        "RAAN(deg)": 324.9750990362813,
        "Satellite Name": "Starlink Shell 1 1442",
        "Satellite Number": 1442,
        "Semi-Major Axis(m)": 6931778.249405717,
        "Time(s)": 480
    },
    {
        "Altitude(m)": 564889.1562838097,
        "Argument of Periapsis(deg)": 0.017080345496050607,
        "Eccentricity": 0.0,
        "Inclination(deg)": 53.0,
        "Latitude(deg)": -36.00765274337664,
        "Longitude(deg)": 75.95888585927754,
        "Mean Anomaly(deg)": -132.92167102572094,
        "RAAN(deg)": 324.9745802662038,
        "Satellite Name": "Starlink Shell 1 1442",
        "Satellite Number": 1442,
        "Semi-Major Axis(m)": 6931778.249405717,
        "Time(s)": 490
    },
    {
        "Altitude(m)": 565059.8975587544,
        "Argument of Periapsis(deg)": 0.017428923975561842,
        "Eccentricity": 0.0,
        "Inclination(deg)": 53.0,
        "Latitude(deg)": -36.42649191518935,
        "Longitude(deg)": 76.4935103928246,
        "Mean Anomaly(deg)": -132.2948398221643,
        "RAAN(deg)": 324.9740614961264,
        "Satellite Name": "Starlink Shell 1 1442",
        "Satellite Number": 1442,
        "Semi-Major Axis(m)": 6931778.249405717,
        "Time(s)": 500
    },
    {
        "Altitude(m)": 565229.8270546513,
        "Argument of Periapsis(deg)": 0.01777750245507308,
        "Eccentricity": 0.0,
        "Inclination(deg)": 53.0,
        "Latitude(deg)": -36.84248344404493,
        "Longitude(deg)": 77.03431280108111,
        "Mean Anomaly(deg)": -131.66800861860753,
        "RAAN(deg)": 324.9735427260489,
        "Satellite Name": "Starlink Shell 1 1442",
        "Satellite Number": 1442,
        "Semi-Major Axis(m)": 6931778.249405717,
        "Time(s)": 510
    },
    {
        "Altitude(m)": 565398.8792825784,
        "Argument of Periapsis(deg)": 0.018126080934584315,
        "Eccentricity": 0.0,
        "Inclination(deg)": 53.0,
        "Latitude(deg)": -37.25555458720251,
        "Longitude(deg)": 77.58141165996183,
        "Mean Anomaly(deg)": -131.04117741505087,
        "RAAN(deg)": 324.97302395597137,
        "Satellite Name": "Starlink Shell 1 1442",
        "Satellite Number": 1442,
        "Semi-Major Axis(m)": 6931778.249405717,
        "Time(s)": 520
    },
    {
        "Altitude(m)": 565566.9889993056,
        "Argument of Periapsis(deg)": 0.018474659414095554,
        "Eccentricity": 0.0,
        "Inclination(deg)": 53.0,
        "Latitude(deg)": -37.66563095828906,
        "Longitude(deg)": 78.13492633848307,
        "Mean Anomaly(deg)": -130.41434621149412,
        "RAAN(deg)": 324.97250518589397,
        "Satellite Name": "Starlink Shell 1 1442",
        "Satellite Number": 1442,
        "Semi-Major Axis(m)": 6931778.249405717,
        "Time(s)": 530
    },
    {
        "Altitude(m)": 565734.0912363525,
        "Argument of Periapsis(deg)": 0.018823237893606792,
        "Eccentricity": 0.0,
        "Inclination(deg)": 53.0,
        "Latitude(deg)": -38.07263650015023,
        "Longitude(deg)": 78.69497585536898,
        "Mean Anomaly(deg)": -129.78751500793746,
        "RAAN(deg)": 324.9719864158165,
        "Satellite Name": "Starlink Shell 1 1442",
        "Satellite Number": 1442,
        "Semi-Major Axis(m)": 6931778.249405717,
        "Time(s)": 540
    },
    {
        "Altitude(m)": 565900.1213289119,
        "Argument of Periapsis(deg)": 0.019171816373118027,
        "Eccentricity": 0.0,
        "Inclination(deg)": 53.0,
        "Latitude(deg)": -38.47649345902258,
        "Longitude(deg)": 79.26167923667967,
        "Mean Anomaly(deg)": -129.16068380438068,
        "RAAN(deg)": 324.971467645739,
        "Satellite Name": "Starlink Shell 1 1442",
        "Satellite Number": 1442,
        "Semi-Major Axis(m)": 6931778.249405717,
        "Time(s)": 550
    },
    {
        "Altitude(m)": 566065.0149445911,
        "Argument of Periapsis(deg)": 0.019520394852629266,
        "Eccentricity": 0.0,
        "Inclination(deg)": 53.0,
        "Latitude(deg)": -38.877122360219666,
        "Longitude(deg)": 79.83515586098918,
        "Mean Anomaly(deg)": -128.53385260082396,
        "RAAN(deg)": 324.9709488756615,
        "Satellite Name": "Starlink Shell 1 1442",
        "Satellite Number": 1442,
        "Semi-Major Axis(m)": 6931778.249405717,
        "Time(s)": 560
    }
]